GLOBALSTAR M024 [-]     
1 25883U 99043A   23283.61938649  .00000018  00000+0  29284-2 0  9990
2 25883  52.0038 329.5395 0001561 158.4465  13.3042 11.10153537 46491
GLOBALSTAR M027 [-]     
1 25884U 99043B   23283.64795649 -.00000052  00000+0  44057-3 0  9990
2 25884  52.0246  30.0203 0021711  78.3718 281.9511 11.04364932 73237
GLOBALSTAR M053 [-]     
1 25886U 99043D   23283.90078133 -.00000060  00000+0  26176-3 0  9994
2 25886  51.9959 172.9720 0003942 106.7806 336.4255 11.27651354 50034
GLOBALSTAR M058 [-]     
1 25907U 99049A   23283.75556767 -.00000034  00000+0  68522-3 0  9993
2 25907  51.9947 312.4940 0002419 155.5645 204.5305 11.93167050468077
GLOBALSTAR M050 [-]     
1 25908U 99049B   23283.66741078 -.00000041  00000+0  53607-3 0  9991
2 25908  52.0020   6.3860 0008630 242.6005 265.2597 12.07423308 73831
GLOBALSTAR M033 [-]     
1 25909U 99049C   23283.71133168 -.00000113  00000+0 -20768-3 0  9996
2 25909  51.9905 280.6103 0011802  89.5066 270.7134 12.20262591460602
GLOBALSTAR M055 [-]     
1 25910U 99049D   23283.80216575 -.00000041  00000+0  45624-3 0  9999
2 25910  52.0029 321.0490 0006682 294.5309  65.4846 12.29388639 92599
