<?xml version="1.0" encoding="UTF-8"?>
<ndm xmlns:xsi="http://www.w3.org/2001/XMLSchema-instance" xsi:noNamespaceSchemaLocation="https://sanaregistry.org/r/ndmxml_unqualified/ndmxml-2.0.0-master-2.0.xsd">
<omm id="CCSDS_OMM_VERS" version="2.0">
<header><CREATION_DATE/><ORIGINATOR/></header><body><segment><metadata><OBJECT_NAME>GLOBALSTAR M024 [-]</OBJECT_NAME><OBJECT_ID>1999-043A</OBJECT_ID><CENTER_NAME>EARTH</CENTER_NAME><REF_FRAME>TEME</REF_FRAME><TIME_SYSTEM>UTC</TIME_SYSTEM><MEAN_ELEMENT_THEORY>SGP4</MEAN_ELEMENT_THEORY></metadata><data><meanElements><EPOCH>2023-10-10T14:51:54.992736</EPOCH><MEAN_MOTION>11.10153537</MEAN_MOTION><ECCENTRICITY>.0001561</ECCENTRICITY><INCLINATION>52.0038</INCLINATION><RA_OF_ASC_NODE>329.5395</RA_OF_ASC_NODE><ARG_OF_PERICENTER>158.4465</ARG_OF_PERICENTER><MEAN_ANOMALY>13.3042</MEAN_ANOMALY></meanElements><tleParameters><EPHEMERIS_TYPE>0</EPHEMERIS_TYPE><CLASSIFICATION_TYPE>U</CLASSIFICATION_TYPE><NORAD_CAT_ID>25883</NORAD_CAT_ID><ELEMENT_SET_NO>999</ELEMENT_SET_NO><REV_AT_EPOCH>4649</REV_AT_EPOCH><BSTAR>.29284E-2</BSTAR><MEAN_MOTION_DOT>.18E-6</MEAN_MOTION_DOT><MEAN_MOTION_DDOT>0</MEAN_MOTION_DDOT></tleParameters></data></segment></body></omm>
<omm id="CCSDS_OMM_VERS" version="2.0">
<header><CREATION_DATE/><ORIGINATOR/></header><body><segment><metadata><OBJECT_NAME>GLOBALSTAR M027 [-]</OBJECT_NAME><OBJECT_ID>1999-043B</OBJECT_ID><CENTER_NAME>EARTH</CENTER_NAME><REF_FRAME>TEME</REF_FRAME><TIME_SYSTEM>UTC</TIME_SYSTEM><MEAN_ELEMENT_THEORY>SGP4</MEAN_ELEMENT_THEORY></metadata><data><meanElements><EPOCH>2023-10-10T15:33:03.440736</EPOCH><MEAN_MOTION>11.04364932</MEAN_MOTION><ECCENTRICITY>.0021711</ECCENTRICITY><INCLINATION>52.0246</INCLINATION><RA_OF_ASC_NODE>30.0203</RA_OF_ASC_NODE><ARG_OF_PERICENTER>78.3718</ARG_OF_PERICENTER><MEAN_ANOMALY>281.9511</MEAN_ANOMALY></meanElements><tleParameters><EPHEMERIS_TYPE>0</EPHEMERIS_TYPE><CLASSIFICATION_TYPE>U</CLASSIFICATION_TYPE><NORAD_CAT_ID>25884</NORAD_CAT_ID><ELEMENT_SET_NO>999</ELEMENT_SET_NO><REV_AT_EPOCH>7323</REV_AT_EPOCH><BSTAR>.44057E-3</BSTAR><MEAN_MOTION_DOT>-.52E-6</MEAN_MOTION_DOT><MEAN_MOTION_DDOT>0</MEAN_MOTION_DDOT></tleParameters></data></segment></body></omm>
<omm id="CCSDS_OMM_VERS" version="2.0">
<header><CREATION_DATE/><ORIGINATOR/></header><body><segment><metadata><OBJECT_NAME>GLOBALSTAR M053 [-]</OBJECT_NAME><OBJECT_ID>1999-043D</OBJECT_ID><CENTER_NAME>EARTH</CENTER_NAME><REF_FRAME>TEME</REF_FRAME><TIME_SYSTEM>UTC</TIME_SYSTEM><MEAN_ELEMENT_THEORY>SGP4</MEAN_ELEMENT_THEORY></metadata><data><meanElements><EPOCH>2023-10-10T21:37:07.506912</EPOCH><MEAN_MOTION>11.27651354</MEAN_MOTION><ECCENTRICITY>.0003942</ECCENTRICITY><INCLINATION>51.9959</INCLINATION><RA_OF_ASC_NODE>172.9720</RA_OF_ASC_NODE><ARG_OF_PERICENTER>106.7806</ARG_OF_PERICENTER><MEAN_ANOMALY>336.4255</MEAN_ANOMALY></meanElements><tleParameters><EPHEMERIS_TYPE>0</EPHEMERIS_TYPE><CLASSIFICATION_TYPE>U</CLASSIFICATION_TYPE><NORAD_CAT_ID>25886</NORAD_CAT_ID><ELEMENT_SET_NO>999</ELEMENT_SET_NO><REV_AT_EPOCH>5003</REV_AT_EPOCH><BSTAR>.26176E-3</BSTAR><MEAN_MOTION_DOT>-.6E-6</MEAN_MOTION_DOT><MEAN_MOTION_DDOT>0</MEAN_MOTION_DDOT></tleParameters></data></segment></body></omm>
<omm id="CCSDS_OMM_VERS" version="2.0">
<header><CREATION_DATE/><ORIGINATOR/></header><body><segment><metadata><OBJECT_NAME>GLOBALSTAR M058 [-]</OBJECT_NAME><OBJECT_ID>1999-049A</OBJECT_ID><CENTER_NAME>EARTH</CENTER_NAME><REF_FRAME>TEME</REF_FRAME><TIME_SYSTEM>UTC</TIME_SYSTEM><MEAN_ELEMENT_THEORY>SGP4</MEAN_ELEMENT_THEORY></metadata><data><meanElements><EPOCH>2023-10-10T18:08:01.046688</EPOCH><MEAN_MOTION>11.93167050</MEAN_MOTION><ECCENTRICITY>.0002419</ECCENTRICITY><INCLINATION>51.9947</INCLINATION><RA_OF_ASC_NODE>312.4940</RA_OF_ASC_NODE><ARG_OF_PERICENTER>155.5645</ARG_OF_PERICENTER><MEAN_ANOMALY>204.5305</MEAN_ANOMALY></meanElements><tleParameters><EPHEMERIS_TYPE>0</EPHEMERIS_TYPE><CLASSIFICATION_TYPE>U</CLASSIFICATION_TYPE><NORAD_CAT_ID>25907</NORAD_CAT_ID><ELEMENT_SET_NO>999</ELEMENT_SET_NO><REV_AT_EPOCH>46807</REV_AT_EPOCH><BSTAR>.68522E-3</BSTAR><MEAN_MOTION_DOT>-.34E-6</MEAN_MOTION_DOT><MEAN_MOTION_DDOT>0</MEAN_MOTION_DDOT></tleParameters></data></segment></body></omm>
<omm id="CCSDS_OMM_VERS" version="2.0">
<header><CREATION_DATE/><ORIGINATOR/></header><body><segment><metadata><OBJECT_NAME>GLOBALSTAR M050 [-]</OBJECT_NAME><OBJECT_ID>1999-049B</OBJECT_ID><CENTER_NAME>EARTH</CENTER_NAME><REF_FRAME>TEME</REF_FRAME><TIME_SYSTEM>UTC</TIME_SYSTEM><MEAN_ELEMENT_THEORY>SGP4</MEAN_ELEMENT_THEORY></metadata><data><meanElements><EPOCH>2023-10-10T16:01:04.291392</EPOCH><MEAN_MOTION>12.07423308</MEAN_MOTION><ECCENTRICITY>.000863</ECCENTRICITY><INCLINATION>52.0020</INCLINATION><RA_OF_ASC_NODE>6.3860</RA_OF_ASC_NODE><ARG_OF_PERICENTER>242.6005</ARG_OF_PERICENTER><MEAN_ANOMALY>265.2597</MEAN_ANOMALY></meanElements><tleParameters><EPHEMERIS_TYPE>0</EPHEMERIS_TYPE><CLASSIFICATION_TYPE>U</CLASSIFICATION_TYPE><NORAD_CAT_ID>25908</NORAD_CAT_ID><ELEMENT_SET_NO>999</ELEMENT_SET_NO><REV_AT_EPOCH>7383</REV_AT_EPOCH><BSTAR>.53607E-3</BSTAR><MEAN_MOTION_DOT>-.41E-6</MEAN_MOTION_DOT><MEAN_MOTION_DDOT>0</MEAN_MOTION_DDOT></tleParameters></data></segment></body></omm>
<omm id="CCSDS_OMM_VERS" version="2.0">
<header><CREATION_DATE/><ORIGINATOR/></header><body><segment><metadata><OBJECT_NAME>GLOBALSTAR M033 [-]</OBJECT_NAME><OBJECT_ID>1999-049C</OBJECT_ID><CENTER_NAME>EARTH</CENTER_NAME><REF_FRAME>TEME</REF_FRAME><TIME_SYSTEM>UTC</TIME_SYSTEM><MEAN_ELEMENT_THEORY>SGP4</MEAN_ELEMENT_THEORY></metadata><data><meanElements><EPOCH>2023-10-10T17:04:19.057152</EPOCH><MEAN_MOTION>12.20262591</MEAN_MOTION><ECCENTRICITY>.0011802</ECCENTRICITY><INCLINATION>51.9905</INCLINATION><RA_OF_ASC_NODE>280.6103</RA_OF_ASC_NODE><ARG_OF_PERICENTER>89.5066</ARG_OF_PERICENTER><MEAN_ANOMALY>270.7134</MEAN_ANOMALY></meanElements><tleParameters><EPHEMERIS_TYPE>0</EPHEMERIS_TYPE><CLASSIFICATION_TYPE>U</CLASSIFICATION_TYPE><NORAD_CAT_ID>25909</NORAD_CAT_ID><ELEMENT_SET_NO>999</ELEMENT_SET_NO><REV_AT_EPOCH>46060</REV_AT_EPOCH><BSTAR>-.20768E-3</BSTAR><MEAN_MOTION_DOT>-.113E-5</MEAN_MOTION_DOT><MEAN_MOTION_DDOT>0</MEAN_MOTION_DDOT></tleParameters></data></segment></body></omm>
<omm id="CCSDS_OMM_VERS" version="2.0">
<header><CREATION_DATE/><ORIGINATOR/></header><body><segment><metadata><OBJECT_NAME>GLOBALSTAR M055 [-]</OBJECT_NAME><OBJECT_ID>1999-049D</OBJECT_ID><CENTER_NAME>EARTH</CENTER_NAME><REF_FRAME>TEME</REF_FRAME><TIME_SYSTEM>UTC</TIME_SYSTEM><MEAN_ELEMENT_THEORY>SGP4</MEAN_ELEMENT_THEORY></metadata><data><meanElements><EPOCH>2023-10-10T19:15:07.120800</EPOCH><MEAN_MOTION>12.29388639</MEAN_MOTION><ECCENTRICITY>.0006682</ECCENTRICITY><INCLINATION>52.0029</INCLINATION><RA_OF_ASC_NODE>321.0490</RA_OF_ASC_NODE><ARG_OF_PERICENTER>294.5309</ARG_OF_PERICENTER><MEAN_ANOMALY>65.4846</MEAN_ANOMALY></meanElements><tleParameters><EPHEMERIS_TYPE>0</EPHEMERIS_TYPE><CLASSIFICATION_TYPE>U</CLASSIFICATION_TYPE><NORAD_CAT_ID>25910</NORAD_CAT_ID><ELEMENT_SET_NO>999</ELEMENT_SET_NO><REV_AT_EPOCH>9259</REV_AT_EPOCH><BSTAR>.45624E-3</BSTAR><MEAN_MOTION_DOT>-.41E-6</MEAN_MOTION_DOT><MEAN_MOTION_DDOT>0</MEAN_MOTION_DDOT></tleParameters></data></segment></body></omm>

</ndm>
